{"type":"FeatureCollection","features":[{"type":"Feature","properties":{"wardnum":25,"origin":"http://www.pmc.gov.in/sites/default/files/final_ward_maps/25_F_Ward.pdf","Name1":"25 Hadapsar Gaothan - Satavwadi","Name2":"Hadapsar Gaothan - Satavwadi","tier":"pilot"},"geometry":{"type":"MultiPolygon","coordinates":[[[[73.93382,18.50147],[73.93469,18.50135],[73.93624,18.50111],[73.9369,18.50106],[73.93766,18.50101],[73.93891,18.50084],[73.94024,18.50063],[73.94037,18.50061],[73.94049,18.50059],[73.94149,18.50044],[73.94236,18.50033],[73.94357,18.50019],[73.94406,18.50011],[73.94406,18.5001],[73.94411,18.49839],[73.94398,18.4982],[73.94702,18.49781],[73.94836,18.49769],[73.94869,18.49765],[73.95048,18.49747],[73.95129,18.49735],[73.95194,18.49723],[73.95296,18.49687],[73.95434,18.49629],[73.95686,18.49522],[73.95724,18.49503],[73.95688,18.49336],[73.95687,18.49327],[73.95566,18.49343],[73.95486,18.49353],[73.95388,18.49362],[73.95322,18.49369],[73.95275,18.49372],[73.9523,18.49372],[73.95182,18.49371],[73.95123,18.49375],[73.9507,18.49381],[73.95006,18.49387],[73.95001,18.49358],[73.94988,18.49322],[73.94963,18.49252],[73.9494,18.49182],[73.94922,18.49126],[73.94874,18.49189],[73.94792,18.49302],[73.94739,18.49368],[73.94714,18.49394],[73.94689,18.49414],[73.94647,18.49445],[73.94596,18.49478],[73.94549,18.4951],[73.94496,18.4955],[73.94402,18.49619],[73.94268,18.49714],[73.94187,18.49774],[73.94142,18.49813],[73.94092,18.49856],[73.94041,18.49836],[73.94001,18.49817],[73.93961,18.49794],[73.9393,18.49768],[73.93913,18.49742],[73.93889,18.49714],[73.9387,18.49697],[73.93848,18.49684],[73.93827,18.49684],[73.93735,18.49698],[73.93632,18.49721],[73.93599,18.4973],[73.93568,18.49738],[73.93536,18.49733],[73.93421,18.49707],[73.9335,18.49693],[73.93312,18.49689],[73.93311,18.49663],[73.9329,18.49604],[73.9323,18.49315],[73.93143,18.49325],[73.92906,18.49332],[73.9289,18.49216],[73.9283,18.49275],[73.92733,18.49374],[73.92254,18.49855],[73.92408,18.49887],[73.92432,18.49878],[73.92435,18.49929],[73.92351,18.49978],[73.92327,18.49977],[73.92321,18.50067],[73.92344,18.50155],[73.92368,18.50133],[73.92411,18.50173],[73.92497,18.50185],[73.92484,18.50202],[73.92461,18.50255],[73.9246,18.50277],[73.92454,18.50323],[73.92508,18.50309],[73.92787,18.50235],[73.92892,18.50204],[73.92945,18.50187],[73.92987,18.50178],[73.93104,18.50165],[73.93211,18.50156],[73.93293,18.50154],[73.93329,18.50151],[73.93382,18.50147]]]]}},{"type":"Feature","properties":{"wardnum":26,"origin":"http://www.pmc.gov.in/sites/default/files/final_ward_maps/26_F_Ward.pdf","Name1":"26 Wanwadi Gaothan - Vaiduwadi","Name2":"Wanwadi Gaothan - Vaiduwadi","tier":"pilot"},"geometry":{"type":"MultiPolygon","coordinates":[[[[73.90905,18.52566],[73.90962,18.52562],[73.90954,18.52438],[73.90952,18.52222],[73.90959,18.52101],[73.90962,18.5202],[73.90962,18.51991],[73.90964,18.51979],[73.90979,18.51977],[73.91021,18.51975],[73.91145,18.51974],[73.91294,18.51971],[73.9141,18.51969],[73.91469,18.51973],[73.91501,18.51979],[73.91547,18.51982],[73.91563,18.51976],[73.9157,18.51963],[73.91545,18.51854],[73.91347,18.51892],[73.91299,18.51897],[73.91238,18.51887],[73.91189,18.51866],[73.91142,18.51829],[73.91115,18.51793],[73.91093,18.51754],[73.91063,18.51616],[73.91053,18.5157],[73.91046,18.51541],[73.91025,18.51515],[73.91013,18.51503],[73.91014,18.51428],[73.91051,18.51461],[73.91136,18.51508],[73.91202,18.5153],[73.91269,18.51556],[73.9131,18.51573],[73.91365,18.51592],[73.91406,18.516],[73.91488,18.51601],[73.91533,18.51596],[73.91526,18.5155],[73.91552,18.5155],[73.91609,18.51538],[73.91655,18.51518],[73.91714,18.51496],[73.91775,18.51467],[73.918,18.5145],[73.91829,18.51418],[73.91837,18.51407],[73.91857,18.51435],[73.9187,18.51417],[73.91901,18.51349],[73.91956,18.51242],[73.91992,18.51176],[73.92016,18.51126],[73.92064,18.51013],[73.92088,18.5095],[73.92121,18.50861],[73.92131,18.50826],[73.92144,18.50803],[73.9216,18.50781],[73.92181,18.50762],[73.92211,18.50744],[73.92238,18.5072],[73.9225,18.50702],[73.92251,18.5068],[73.92249,18.50649],[73.92239,18.50602],[73.92184,18.50394],[73.92421,18.50332],[73.92454,18.50323],[73.9246,18.50277],[73.92461,18.50255],[73.92484,18.50202],[73.92497,18.50185],[73.92411,18.50173],[73.92368,18.50133],[73.92344,18.50155],[73.92321,18.50067],[73.92327,18.49977],[73.92351,18.49978],[73.92435,18.49929],[73.92432,18.49878],[73.92408,18.49887],[73.92254,18.49855],[73.92247,18.49852],[73.92234,18.49865],[73.92168,18.49931],[73.91873,18.5023],[73.91806,18.50298],[73.91678,18.50427],[73.91515,18.50593],[73.91482,18.50601],[73.91414,18.50619],[73.91349,18.50629],[73.91294,18.50635],[73.91256,18.50638],[73.91253,18.50495],[73.91241,18.50277],[73.91176,18.50255],[73.91152,18.50129],[73.91143,18.50087],[73.91133,18.50066],[73.91045,18.4988],[73.91116,18.49885],[73.91137,18.49794],[73.91195,18.49643],[73.91161,18.49495],[73.91158,18.49465],[73.91145,18.49358],[73.91079,18.49365],[73.90995,18.49375],[73.90868,18.49391],[73.90822,18.49394],[73.908,18.49374],[73.90708,18.49379],[73.90709,18.49404],[73.90668,18.49406],[73.90668,18.49382],[73.90561,18.49385],[73.90443,18.49386],[73.90382,18.49384],[73.90389,18.49404],[73.90318,18.49442],[73.90198,18.49509],[73.90178,18.49474],[73.90102,18.4949],[73.90043,18.49505],[73.90019,18.49507],[73.89971,18.49514],[73.89941,18.4952],[73.899,18.49531],[73.89874,18.49543],[73.89831,18.49561],[73.8975,18.49595],[73.89739,18.49603],[73.89729,18.49614],[73.89722,18.49629],[73.89711,18.49645],[73.89693,18.49661],[73.89672,18.4968],[73.89783,18.49774],[73.89834,18.49804],[73.89842,18.49814],[73.89848,18.49824],[73.89849,18.49836],[73.89848,18.49847],[73.89844,18.49858],[73.89839,18.4989],[73.89842,18.49894],[73.89857,18.49906],[73.8988,18.49917],[73.89893,18.49929],[73.89901,18.49946],[73.89902,18.49967],[73.89899,18.49982],[73.89892,18.49994],[73.89886,18.50015],[73.89885,18.50031],[73.89889,18.5005],[73.89902,18.5009],[73.89914,18.50128],[73.89916,18.50159],[73.89918,18.50199],[73.89921,18.50227],[73.89924,18.50252],[73.89939,18.50279],[73.89955,18.50305],[73.8997,18.5033],[73.89979,18.50353],[73.89984,18.50385],[73.89985,18.50417],[73.89985,18.50441],[73.90401,18.50423],[73.90407,18.50424],[73.90407,18.50427],[73.90397,18.5045],[73.90391,18.50463],[73.90389,18.50495],[73.9039,18.50505],[73.90382,18.50524],[73.90372,18.50545],[73.90355,18.50565],[73.90346,18.50568],[73.90334,18.50568],[73.9033,18.50573],[73.90295,18.50616],[73.90258,18.50658],[73.90128,18.50661],[73.89964,18.50664],[73.89967,18.5069],[73.89969,18.50713],[73.89973,18.5073],[73.89978,18.50738],[73.90022,18.50762],[73.90025,18.50766],[73.90024,18.50774],[73.90021,18.50785],[73.90009,18.50813],[73.90007,18.50835],[73.90008,18.50848],[73.90009,18.50868],[73.90007,18.50913],[73.90022,18.5093],[73.90034,18.50954],[73.90036,18.50963],[73.90036,18.50976],[73.90009,18.51037],[73.90009,18.51051],[73.90033,18.51098],[73.9004,18.51102],[73.90081,18.51101],[73.90133,18.511],[73.90197,18.51105],[73.90236,18.51117],[73.90279,18.51146],[73.90375,18.51253],[73.90554,18.51449],[73.90628,18.51529],[73.90682,18.51557],[73.90715,18.51561],[73.90717,18.51584],[73.90705,18.51637],[73.90681,18.51731],[73.90662,18.51821],[73.90652,18.51969],[73.90649,18.52024],[73.90635,18.52256],[73.90622,18.52531],[73.90701,18.52532],[73.90703,18.52565],[73.90763,18.52562],[73.90763,18.52584],[73.90907,18.52578],[73.90905,18.52566]]]]}},{"type":"Feature","properties":{"wardnum":41,"origin":"http://www.pmc.gov.in/sites/default/files/final_ward_maps/41_F_Ward.pdf","Name1":"41 Kondhva Kh - Mithanagar","Name2":"Kondhva Kh - Mithanagar","tier":"core"},"geometry":{"type":"MultiPolygon","coordinates":[[[[73.89103,18.48276],[73.89115,18.48245],[73.89121,18.48196],[73.89115,18.48141],[73.89105,18.48039],[73.89084,18.47959],[73.89038,18.47789],[73.89031,18.47788],[73.89023,18.47779],[73.88975,18.4768],[73.88972,18.4767],[73.88953,18.47573],[73.8894,18.47488],[73.88933,18.47455],[73.88914,18.47363],[73.88913,18.4735],[73.88912,18.47339],[73.88901,18.47215],[73.88893,18.47113],[73.8889,18.47009],[73.88896,18.46893],[73.88897,18.46831],[73.88904,18.46771],[73.88928,18.46672],[73.88941,18.46598],[73.88949,18.4655],[73.88965,18.46468],[73.88958,18.46468],[73.88952,18.46469],[73.88927,18.46471],[73.88895,18.46477],[73.88868,18.4648],[73.88834,18.46481],[73.88797,18.46481],[73.88762,18.46476],[73.88669,18.46465],[73.88584,18.46452],[73.88555,18.46447],[73.88525,18.46452],[73.88482,18.4645],[73.88415,18.46453],[73.88376,18.46474],[73.88369,18.46474],[73.88335,18.46468],[73.88299,18.46464],[73.88266,18.46462],[73.88216,18.46457],[73.88129,18.46449],[73.88049,18.4644],[73.8798,18.46432],[73.87982,18.46457],[73.87896,18.46461],[73.87895,18.46466],[73.8789,18.46469],[73.87831,18.46471],[73.87752,18.46469],[73.8775,18.46474],[73.87746,18.46488],[73.87737,18.46509],[73.87717,18.46546],[73.87697,18.46578],[73.87688,18.46598],[73.87683,18.46618],[73.87661,18.46697],[73.87653,18.46733],[73.87631,18.46804],[73.87613,18.46867],[73.87602,18.46899],[73.87548,18.47052],[73.87528,18.47109],[73.87519,18.47122],[73.87513,18.47131],[73.87513,18.47153],[73.87511,18.47183],[73.87505,18.47209],[73.875,18.47223],[73.87543,18.47217],[73.87601,18.47206],[73.87622,18.472],[73.87716,18.47199],[73.87802,18.47188],[73.87818,18.47191],[73.87855,18.47202],[73.87961,18.47202],[73.87963,18.47255],[73.87959,18.47299],[73.8797,18.47335],[73.87989,18.47376],[73.87989,18.47415],[73.87966,18.47474],[73.87965,18.47546],[73.87956,18.47555],[73.87969,18.47569],[73.87999,18.4761],[73.88039,18.4767],[73.88049,18.47694],[73.88076,18.47727],[73.88092,18.47752],[73.88118,18.47801],[73.88305,18.47768],[73.88365,18.4776],[73.8837,18.47824],[73.88467,18.47818],[73.88465,18.47883],[73.88616,18.47886],[73.88694,18.47889],[73.8871,18.47886],[73.88715,18.47882],[73.88738,18.47921],[73.88742,18.47946],[73.88764,18.47963],[73.88814,18.4799],[73.88843,18.47997],[73.88886,18.48002],[73.88886,18.48069],[73.88783,18.4808],[73.88786,18.481],[73.88795,18.48122],[73.88823,18.48147],[73.88854,18.4816],[73.88897,18.48168],[73.8891,18.48176],[73.8894,18.48216],[73.88961,18.48241],[73.88999,18.48271],[73.8905,18.48309],[73.8906,18.48306],[73.89099,18.48288],[73.89103,18.48276]]]]}},{"type":"Feature","properties":{"wardnum":42,"origin":"http://www.pmc.gov.in/sites/default/files/final_ward_maps/42_F_Ward.pdf","Name1":"42 Ramtekadi - Sayyadnagar","Name2":"Ramtekadi - Sayyadnagar","tier":"pilot"},"geometry":{"type":"MultiPolygon","coordinates":[[[[73.92168,18.49931],[73.92234,18.49865],[73.92247,18.49852],[73.92254,18.49855],[73.92733,18.49374],[73.9283,18.49275],[73.9289,18.49216],[73.93045,18.49056],[73.93165,18.48936],[73.93211,18.48893],[73.93203,18.4888],[73.93176,18.48464],[73.93166,18.48317],[73.93153,18.48248],[73.93136,18.48135],[73.93137,18.48078],[73.92942,18.48083],[73.92948,18.48159],[73.92959,18.48183],[73.92962,18.48296],[73.92896,18.48302],[73.92862,18.48314],[73.9281,18.48341],[73.92755,18.48351],[73.927,18.48358],[73.92696,18.48338],[73.92667,18.48286],[73.92664,18.48272],[73.92671,18.48244],[73.92668,18.48224],[73.92643,18.48201],[73.92626,18.48163],[73.92621,18.48152],[73.92618,18.48104],[73.92626,18.48055],[73.92627,18.4803],[73.92619,18.48002],[73.92561,18.4793],[73.92495,18.47857],[73.92401,18.47899],[73.92377,18.47901],[73.92335,18.47857],[73.92278,18.47791],[73.92267,18.4777],[73.92259,18.47745],[73.92262,18.477],[73.92271,18.47654],[73.9227,18.47615],[73.92267,18.47598],[73.92256,18.47572],[73.92221,18.47574],[73.92122,18.47542],[73.92034,18.47514],[73.91982,18.475],[73.91919,18.47492],[73.9185,18.47497],[73.91794,18.47507],[73.91747,18.47515],[73.91658,18.47517],[73.91629,18.47524],[73.91574,18.47524],[73.91541,18.47497],[73.91533,18.47495],[73.91505,18.47491],[73.91515,18.47483],[73.91556,18.47461],[73.91607,18.47437],[73.91583,18.47418],[73.91544,18.47402],[73.91516,18.47388],[73.91468,18.4734],[73.91443,18.47308],[73.91455,18.47298],[73.91559,18.47259],[73.91592,18.47244],[73.91696,18.47187],[73.91671,18.4716],[73.91631,18.47088],[73.91616,18.47052],[73.91585,18.4703],[73.91554,18.47016],[73.91515,18.47003],[73.91497,18.46991],[73.91491,18.46968],[73.91483,18.46897],[73.91475,18.46873],[73.91461,18.4686],[73.91426,18.46846],[73.91396,18.46841],[73.91367,18.46821],[73.91349,18.4679],[73.9134,18.46768],[73.91319,18.46738],[73.9131,18.46705],[73.91314,18.46654],[73.91288,18.46661],[73.91226,18.46676],[73.91198,18.46678],[73.91173,18.46669],[73.91153,18.46654],[73.91127,18.46647],[73.9107,18.46643],[73.91019,18.46626],[73.90993,18.46615],[73.90944,18.46608],[73.90927,18.46601],[73.9091,18.46584],[73.90901,18.46574],[73.9089,18.46561],[73.9087,18.46564],[73.90851,18.46568],[73.90823,18.46562],[73.90801,18.46551],[73.90774,18.46519],[73.90753,18.46466],[73.90734,18.46405],[73.90721,18.46335],[73.90432,18.46344],[73.90449,18.46422],[73.90458,18.46498],[73.90348,18.46507],[73.90284,18.46512],[73.90252,18.46555],[73.90228,18.46599],[73.89975,18.46499],[73.89871,18.46503],[73.89805,18.46494],[73.89549,18.46474],[73.8943,18.4647],[73.89358,18.46476],[73.89288,18.46476],[73.89235,18.46467],[73.89166,18.46462],[73.8902,18.4647],[73.8899,18.46463],[73.88967,18.46458],[73.88958,18.46468],[73.88965,18.46468],[73.88949,18.4655],[73.88941,18.46598],[73.88928,18.46672],[73.88904,18.46771],[73.88897,18.46831],[73.88896,18.46893],[73.8889,18.47009],[73.88893,18.47113],[73.88901,18.47215],[73.88912,18.47339],[73.88945,18.47341],[73.89092,18.47342],[73.8916,18.47343],[73.8916,18.47318],[73.89164,18.47309],[73.89168,18.47301],[73.89205,18.47304],[73.89279,18.47308],[73.89276,18.47284],[73.89388,18.4729],[73.89511,18.47293],[73.89607,18.47293],[73.89604,18.47473],[73.89791,18.47456],[73.89841,18.47452],[73.89853,18.47419],[73.90066,18.47442],[73.90067,18.47414],[73.90118,18.47423],[73.90502,18.47472],[73.90636,18.47491],[73.90702,18.47499],[73.90739,18.4763],[73.90757,18.47674],[73.90785,18.47715],[73.90831,18.47831],[73.90851,18.47882],[73.90921,18.48089],[73.91005,18.48288],[73.91024,18.48319],[73.91048,18.48332],[73.91114,18.48369],[73.9118,18.48394],[73.9116,18.48492],[73.91174,18.48528],[73.9116,18.49162],[73.91144,18.49307],[73.91145,18.49358],[73.91158,18.49465],[73.91161,18.49495],[73.91195,18.49643],[73.91137,18.49794],[73.91116,18.49885],[73.91045,18.4988],[73.91133,18.50066],[73.91143,18.50087],[73.91152,18.50129],[73.91176,18.50255],[73.91241,18.50277],[73.91253,18.50495],[73.91256,18.50638],[73.91294,18.50635],[73.91349,18.50629],[73.91414,18.50619],[73.91482,18.50601],[73.91515,18.50593],[73.91678,18.50427],[73.91806,18.50298],[73.91873,18.5023],[73.92168,18.49931]]]]}},{"type":"Feature","properties":{"wardnum":43,"origin":"http://www.pmc.gov.in/sites/default/files/final_ward_maps/43_F_Ward.pdf","Name1":"43 Wanawadi - Kausar Baug","Name2":"Wanawadi - Kausar Baug","tier":"pilot"},"geometry":{"type":"MultiPolygon","coordinates":[[[[73.91145,18.49358],[73.91144,18.49307],[73.9116,18.49162],[73.91174,18.48528],[73.9116,18.48492],[73.9118,18.48394],[73.91114,18.48369],[73.91048,18.48332],[73.91024,18.48319],[73.91005,18.48288],[73.90921,18.48089],[73.90851,18.47882],[73.90831,18.47831],[73.90785,18.47715],[73.90757,18.47674],[73.90739,18.4763],[73.90702,18.47499],[73.90636,18.47491],[73.90502,18.47472],[73.90118,18.47423],[73.90067,18.47414],[73.90066,18.47442],[73.89853,18.47419],[73.89841,18.47452],[73.89791,18.47456],[73.89604,18.47473],[73.89607,18.47293],[73.89511,18.47293],[73.89388,18.4729],[73.89276,18.47284],[73.89279,18.47308],[73.89205,18.47304],[73.89168,18.47301],[73.89164,18.47309],[73.8916,18.47318],[73.8916,18.47343],[73.89092,18.47342],[73.88945,18.47341],[73.88912,18.47339],[73.88913,18.4735],[73.88914,18.47363],[73.88933,18.47455],[73.8894,18.47488],[73.88953,18.47573],[73.88972,18.4767],[73.88975,18.4768],[73.89023,18.47779],[73.89031,18.47788],[73.89038,18.47789],[73.89084,18.47959],[73.89105,18.48039],[73.89115,18.48141],[73.89121,18.48196],[73.89115,18.48245],[73.89103,18.48276],[73.89114,18.48277],[73.89231,18.4826],[73.89291,18.48247],[73.89291,18.48253],[73.89285,18.48334],[73.89286,18.48387],[73.89286,18.48431],[73.8928,18.48589],[73.89283,18.48734],[73.89283,18.4877],[73.89293,18.4879],[73.89308,18.48808],[73.89321,18.48812],[73.89353,18.48817],[73.89417,18.48817],[73.89491,18.48816],[73.89505,18.48842],[73.89514,18.48865],[73.89517,18.48894],[73.8952,18.48906],[73.89545,18.48931],[73.89565,18.48946],[73.89575,18.48962],[73.89586,18.48989],[73.89588,18.4901],[73.8959,18.49069],[73.89595,18.49081],[73.89617,18.49097],[73.89634,18.49114],[73.89649,18.49134],[73.89661,18.49162],[73.89665,18.49191],[73.89666,18.49213],[73.89679,18.49231],[73.89687,18.49242],[73.89702,18.49253],[73.8973,18.49269],[73.89745,18.49284],[73.89745,18.49305],[73.89734,18.49331],[73.89722,18.49364],[73.89717,18.4938],[73.89708,18.49396],[73.897,18.49404],[73.89685,18.49407],[73.89669,18.49404],[73.89664,18.49401],[73.89648,18.49404],[73.8964,18.49408],[73.89634,18.49415],[73.89632,18.49429],[73.89636,18.49483],[73.8964,18.49511],[73.89635,18.49538],[73.89626,18.49575],[73.89621,18.49593],[73.89618,18.4962],[73.89619,18.49631],[73.89628,18.49638],[73.89671,18.49671],[73.89672,18.4968],[73.89693,18.49661],[73.89711,18.49645],[73.89722,18.49629],[73.89729,18.49614],[73.89739,18.49603],[73.8975,18.49595],[73.89831,18.49561],[73.89874,18.49543],[73.899,18.49531],[73.89941,18.4952],[73.89971,18.49514],[73.90019,18.49507],[73.90043,18.49505],[73.90102,18.4949],[73.90178,18.49474],[73.90198,18.49509],[73.90318,18.49442],[73.90389,18.49404],[73.90382,18.49384],[73.90443,18.49386],[73.90561,18.49385],[73.90668,18.49382],[73.90668,18.49406],[73.90709,18.49404],[73.90708,18.49379],[73.908,18.49374],[73.90822,18.49394],[73.90868,18.49391],[73.90995,18.49375],[73.91079,18.49365],[73.91145,18.49358]]]]}},{"type":"Feature","properties":{"wardnum":44,"origin":"http://www.pmc.gov.in/sites/default/files/final_ward_maps/44_F_Ward.pdf","Name1":"44 Kale Boratenagar - Sasanenagar","Name2":"Kale Boratenagar - Sasanenagar","tier":"pilot"},"geometry":{"type":"MultiPolygon","coordinates":[[[[73.94922,18.49126],[73.94932,18.49117],[73.94865,18.48917],[73.94823,18.48795],[73.94812,18.48766],[73.94809,18.48728],[73.94785,18.48693],[73.94669,18.4854],[73.94638,18.48497],[73.94613,18.48472],[73.94596,18.48456],[73.9457,18.48409],[73.94546,18.48389],[73.94545,18.48354],[73.94535,18.48326],[73.94503,18.48206],[73.94464,18.48057],[73.94457,18.48037],[73.94447,18.4801],[73.94414,18.47885],[73.9436,18.47689],[73.94346,18.47689],[73.94295,18.4769],[73.94267,18.47693],[73.94247,18.47697],[73.94222,18.47702],[73.94182,18.47702],[73.94122,18.47695],[73.9407,18.4769],[73.93996,18.47684],[73.93909,18.47676],[73.93788,18.4767],[73.93734,18.47671],[73.93711,18.47669],[73.93691,18.47664],[73.93674,18.47667],[73.93644,18.47668],[73.93521,18.47666],[73.93524,18.47673],[73.93533,18.47687],[73.93554,18.47699],[73.9356,18.47711],[73.93564,18.47766],[73.93563,18.47772],[73.93547,18.47774],[73.93515,18.47767],[73.9348,18.4776],[73.93447,18.47754],[73.93415,18.4775],[73.93376,18.47751],[73.93294,18.47751],[73.93218,18.47753],[73.93142,18.47755],[73.9314,18.47787],[73.93132,18.47904],[73.93127,18.48032],[73.93137,18.48078],[73.93136,18.48135],[73.93153,18.48248],[73.93166,18.48317],[73.93176,18.48464],[73.93203,18.4888],[73.93211,18.48893],[73.93165,18.48936],[73.93045,18.49056],[73.9289,18.49216],[73.92906,18.49332],[73.93143,18.49325],[73.9323,18.49315],[73.9329,18.49604],[73.93311,18.49663],[73.93312,18.49689],[73.9335,18.49693],[73.93421,18.49707],[73.93536,18.49733],[73.93568,18.49738],[73.93599,18.4973],[73.93632,18.49721],[73.93735,18.49698],[73.93827,18.49684],[73.93848,18.49684],[73.9387,18.49697],[73.93889,18.49714],[73.93913,18.49742],[73.9393,18.49768],[73.93961,18.49794],[73.94001,18.49817],[73.94041,18.49836],[73.94092,18.49856],[73.94142,18.49813],[73.94187,18.49774],[73.94268,18.49714],[73.94402,18.49619],[73.94496,18.4955],[73.94549,18.4951],[73.94596,18.49478],[73.94647,18.49445],[73.94689,18.49414],[73.94714,18.49394],[73.94739,18.49368],[73.94792,18.49302],[73.94874,18.49189],[73.94922,18.49126]]]]}},{"type":"Feature","properties":{"wardnum":46,"origin":"http://www.pmc.gov.in/sites/default/files/final_ward_maps/46_F_Ward.pdf","Name1":"46 Mohammad wadi - Uruli Devachi","Name2":"Mohammad wadi - Uruli Devachi","tier":"pilot"},"geometry":{"type":"MultiPolygon","coordinates":[[[[73.93137,18.48078],[73.93127,18.48032],[73.93132,18.47904],[73.9314,18.47787],[73.93142,18.47755],[73.93218,18.47753],[73.93294,18.47751],[73.93376,18.47751],[73.93415,18.4775],[73.93447,18.47754],[73.9348,18.4776],[73.93515,18.47767],[73.93547,18.47774],[73.93563,18.47772],[73.93564,18.47766],[73.9356,18.47711],[73.93554,18.47699],[73.93533,18.47687],[73.93524,18.47673],[73.93521,18.47666],[73.93644,18.47668],[73.93674,18.47667],[73.93691,18.47664],[73.93711,18.47669],[73.93734,18.47671],[73.93788,18.4767],[73.93909,18.47676],[73.93996,18.47684],[73.9407,18.4769],[73.94122,18.47695],[73.94182,18.47702],[73.94222,18.47702],[73.94247,18.47697],[73.94267,18.47693],[73.94295,18.4769],[73.94346,18.47689],[73.94318,18.47606],[73.94232,18.47343],[73.94375,18.47294],[73.94757,18.46947],[73.94737,18.46917],[73.94794,18.46932],[73.94919,18.46902],[73.94961,18.4695],[73.95016,18.46967],[73.95103,18.46962],[73.95177,18.46931],[73.95196,18.46893],[73.95202,18.46846],[73.95201,18.46821],[73.9519,18.46775],[73.95322,18.46745],[73.95616,18.46672],[73.95917,18.46639],[73.96172,18.46532],[73.96344,18.46548],[73.96403,18.46507],[73.9649,18.46579],[73.96607,18.46661],[73.9672,18.46718],[73.96812,18.4675],[73.96876,18.4677],[73.9701,18.46796],[73.97032,18.46861],[73.97048,18.46886],[73.97071,18.46893],[73.97096,18.46888],[73.97225,18.46846],[73.97253,18.46844],[73.97292,18.46856],[73.97311,18.46874],[73.97329,18.46887],[73.97361,18.4689],[73.97397,18.46881],[73.97413,18.46888],[73.97417,18.46913],[73.97412,18.46928],[73.97397,18.46939],[73.97396,18.46957],[73.97398,18.46972],[73.97413,18.46994],[73.9743,18.47042],[73.97429,18.47218],[73.97437,18.47246],[73.97455,18.47273],[73.97545,18.47333],[73.97613,18.47436],[73.97637,18.47449],[73.97711,18.47484],[73.97741,18.47593],[73.97813,18.47671],[73.9782,18.47683],[73.97844,18.47678],[73.97925,18.4766],[73.9797,18.4765],[73.9802,18.47617],[73.98032,18.47592],[73.98058,18.47498],[73.98143,18.47355],[73.98213,18.47241],[73.98248,18.472],[73.98283,18.47162],[73.98443,18.47082],[73.99015,18.46826],[73.99083,18.46814],[73.99157,18.46826],[73.99239,18.46849],[73.99305,18.4687],[73.99352,18.4688],[73.99418,18.46876],[73.99474,18.46858],[73.99548,18.46832],[73.99656,18.46821],[73.99978,18.46664],[73.99965,18.46645],[73.99914,18.46504],[73.99863,18.46371],[73.99799,18.46149],[73.997,18.45776],[73.99567,18.45791],[73.99321,18.45804],[73.99179,18.45786],[73.99019,18.4577],[73.98849,18.45783],[73.98353,18.45791],[73.97607,18.45802],[73.97456,18.4581],[73.97061,18.45819],[73.96951,18.45696],[73.96952,18.45473],[73.9703,18.45294],[73.97048,18.45225],[73.97071,18.45085],[73.97071,18.44942],[73.96977,18.44777],[73.96922,18.44707],[73.96887,18.44704],[73.96853,18.44689],[73.96841,18.44662],[73.9682,18.44428],[73.96776,18.44271],[73.96663,18.44264],[73.96571,18.44249],[73.96481,18.44224],[73.96448,18.44192],[73.96419,18.44122],[73.96419,18.44044],[73.96421,18.43961],[73.96425,18.43861],[73.96395,18.4383],[73.96404,18.43779],[73.96376,18.43757],[73.96378,18.43727],[73.96402,18.43706],[73.96308,18.43625],[73.96218,18.43558],[73.96197,18.43511],[73.96115,18.43446],[73.95917,18.43334],[73.95787,18.43184],[73.95836,18.42586],[73.95773,18.42329],[73.9557,18.42233],[73.95431,18.41961],[73.95196,18.41332],[73.95004,18.41369],[73.94869,18.41386],[73.94845,18.41414],[73.94813,18.4142],[73.94734,18.41377],[73.94436,18.41243],[73.9435,18.41227],[73.94186,18.4126],[73.9409,18.41238],[73.93954,18.4118],[73.93847,18.41122],[73.93795,18.4114],[73.93605,18.41184],[73.93482,18.4118],[73.9349,18.41295],[73.93421,18.41286],[73.93373,18.41316],[73.93285,18.41367],[73.93166,18.41375],[73.93073,18.41362],[73.92998,18.41325],[73.928,18.41278],[73.92647,18.41267],[73.92614,18.41294],[73.92485,18.41249],[73.92371,18.4122],[73.92332,18.41179],[73.92262,18.41086],[73.92205,18.41055],[73.92121,18.40985],[73.92039,18.40861],[73.91965,18.40797],[73.91885,18.40728],[73.9188,18.40695],[73.9171,18.40714],[73.91516,18.40707],[73.91339,18.40695],[73.91105,18.40749],[73.90992,18.40879],[73.90422,18.40885],[73.90365,18.4093],[73.90288,18.40955],[73.90314,18.41055],[73.90354,18.41124],[73.90376,18.41122],[73.90412,18.41278],[73.90443,18.41318],[73.90436,18.41329],[73.90373,18.41322],[73.90359,18.41378],[73.90404,18.41441],[73.90438,18.41424],[73.90606,18.41706],[73.90645,18.41747],[73.90744,18.41849],[73.90931,18.42001],[73.90949,18.42213],[73.90921,18.42279],[73.90882,18.42339],[73.90892,18.42379],[73.90863,18.42392],[73.90866,18.42652],[73.90878,18.42702],[73.90912,18.42758],[73.9094,18.42816],[73.90966,18.42886],[73.90964,18.42932],[73.90954,18.43008],[73.90869,18.43148],[73.90839,18.43221],[73.90936,18.43582],[73.90946,18.43649],[73.90945,18.43737],[73.90954,18.43808],[73.90982,18.43903],[73.9101,18.44004],[73.91012,18.44074],[73.91025,18.44133],[73.91047,18.44231],[73.91047,18.44314],[73.91076,18.44453],[73.91109,18.44531],[73.91102,18.4461],[73.91112,18.4474],[73.91099,18.44793],[73.91091,18.44927],[73.91096,18.45139],[73.9111,18.45184],[73.91125,18.45233],[73.91159,18.45307],[73.91195,18.45374],[73.91201,18.45427],[73.91184,18.45464],[73.91135,18.4553],[73.91121,18.45581],[73.91124,18.45608],[73.91136,18.45652],[73.90859,18.4577],[73.90834,18.45799],[73.90774,18.45802],[73.90682,18.45827],[73.90565,18.45846],[73.90464,18.45882],[73.90453,18.45913],[73.90369,18.45966],[73.90295,18.45991],[73.90239,18.46009],[73.90203,18.46045],[73.90158,18.46058],[73.90063,18.46038],[73.89997,18.46015],[73.89925,18.4601],[73.89865,18.45991],[73.89799,18.45972],[73.8975,18.45942],[73.89703,18.45919],[73.8958,18.45881],[73.89463,18.45815],[73.8937,18.45773],[73.89259,18.45751],[73.89165,18.45745],[73.89097,18.45726],[73.891,18.45796],[73.89098,18.4599],[73.89083,18.46051],[73.89074,18.46102],[73.89063,18.46133],[73.89032,18.46235],[73.88999,18.46296],[73.88968,18.46335],[73.8897,18.46359],[73.8899,18.46424],[73.8899,18.46463],[73.8902,18.4647],[73.89166,18.46462],[73.89235,18.46467],[73.89288,18.46476],[73.89358,18.46476],[73.8943,18.4647],[73.89549,18.46474],[73.89805,18.46494],[73.89871,18.46503],[73.89975,18.46499],[73.90228,18.46599],[73.90252,18.46555],[73.90284,18.46512],[73.90348,18.46507],[73.90458,18.46498],[73.90449,18.46422],[73.90432,18.46344],[73.90721,18.46335],[73.90734,18.46405],[73.90753,18.46466],[73.90774,18.46519],[73.90801,18.46551],[73.90823,18.46562],[73.90851,18.46568],[73.9087,18.46564],[73.9089,18.46561],[73.90901,18.46574],[73.9091,18.46584],[73.90927,18.46601],[73.90944,18.46608],[73.90993,18.46615],[73.91019,18.46626],[73.9107,18.46643],[73.91127,18.46647],[73.91153,18.46654],[73.91173,18.46669],[73.91198,18.46678],[73.91226,18.46676],[73.91288,18.46661],[73.91314,18.46654],[73.9131,18.46705],[73.91319,18.46738],[73.9134,18.46768],[73.91349,18.4679],[73.91367,18.46821],[73.91396,18.46841],[73.91426,18.46846],[73.91461,18.4686],[73.91475,18.46873],[73.91483,18.46897],[73.91491,18.46968],[73.91497,18.46991],[73.91515,18.47003],[73.91554,18.47016],[73.91585,18.4703],[73.91616,18.47052],[73.91631,18.47088],[73.91671,18.4716],[73.91696,18.47187],[73.91592,18.47244],[73.91559,18.47259],[73.91455,18.47298],[73.91443,18.47308],[73.91468,18.4734],[73.91516,18.47388],[73.91544,18.47402],[73.91583,18.47418],[73.91607,18.47437],[73.91556,18.47461],[73.91515,18.47483],[73.91505,18.47491],[73.91533,18.47495],[73.91541,18.47497],[73.91574,18.47524],[73.91629,18.47524],[73.91658,18.47517],[73.91747,18.47515],[73.91794,18.47507],[73.9185,18.47497],[73.91919,18.47492],[73.91982,18.475],[73.92034,18.47514],[73.92122,18.47542],[73.92221,18.47574],[73.92256,18.47572],[73.92267,18.47598],[73.9227,18.47615],[73.92271,18.47654],[73.92262,18.477],[73.92259,18.47745],[73.92267,18.4777],[73.92278,18.47791],[73.92335,18.47857],[73.92377,18.47901],[73.92401,18.47899],[73.92495,18.47857],[73.92561,18.4793],[73.92619,18.48002],[73.92627,18.4803],[73.92626,18.48055],[73.92618,18.48104],[73.92621,18.48152],[73.92626,18.48163],[73.92643,18.48201],[73.92668,18.48224],[73.92671,18.48244],[73.92664,18.48272],[73.92667,18.48286],[73.92696,18.48338],[73.927,18.48358],[73.92755,18.48351],[73.9281,18.48341],[73.92862,18.48314],[73.92896,18.48302],[73.92962,18.48296],[73.92959,18.48183],[73.92948,18.48159],[73.92942,18.48083],[73.93137,18.48078]]]]}},{"type":"Feature","properties":{"wardnum":47,"origin":"http://www.pmc.gov.in/sites/default/files/final_ward_maps/47_F_Ward.pdf","Name1":"47 Kondhva Bk - Yewalewadi","Name2":"Kondhva Bk - Yewalewadi","tier":"core"},"geometry":{"type":"MultiPolygon","coordinates":[[[[73.88958,18.46468],[73.88967,18.46458],[73.8899,18.46463],[73.8899,18.46424],[73.8897,18.46359],[73.88968,18.46335],[73.88999,18.46296],[73.89032,18.46235],[73.89063,18.46133],[73.89074,18.46102],[73.89083,18.46051],[73.89098,18.4599],[73.891,18.45796],[73.89097,18.45726],[73.89165,18.45745],[73.89259,18.45751],[73.8937,18.45773],[73.89463,18.45815],[73.8958,18.45881],[73.89703,18.45919],[73.8975,18.45942],[73.89799,18.45972],[73.89865,18.45991],[73.89925,18.4601],[73.89997,18.46015],[73.90063,18.46038],[73.90158,18.46058],[73.90203,18.46045],[73.90239,18.46009],[73.90295,18.45991],[73.90369,18.45966],[73.90453,18.45913],[73.90464,18.45882],[73.90565,18.45846],[73.90682,18.45827],[73.90774,18.45802],[73.90834,18.45799],[73.90859,18.4577],[73.91136,18.45652],[73.91124,18.45608],[73.91121,18.45581],[73.91135,18.4553],[73.91184,18.45464],[73.91201,18.45427],[73.91195,18.45374],[73.91159,18.45307],[73.91125,18.45233],[73.9111,18.45184],[73.91096,18.45139],[73.91091,18.44927],[73.91099,18.44793],[73.91112,18.4474],[73.91102,18.4461],[73.91109,18.44531],[73.91076,18.44453],[73.91047,18.44314],[73.91047,18.44231],[73.91025,18.44133],[73.91012,18.44074],[73.9101,18.44004],[73.90982,18.43903],[73.90954,18.43808],[73.90945,18.43737],[73.90946,18.43649],[73.90936,18.43582],[73.90839,18.43221],[73.90869,18.43148],[73.90954,18.43008],[73.90964,18.42932],[73.90966,18.42886],[73.9094,18.42816],[73.90912,18.42758],[73.90878,18.42702],[73.90866,18.42652],[73.90863,18.42392],[73.90892,18.42379],[73.90882,18.42339],[73.90921,18.42279],[73.90949,18.42213],[73.90931,18.42001],[73.90744,18.41849],[73.90645,18.41747],[73.90606,18.41706],[73.90438,18.41424],[73.90404,18.41441],[73.90359,18.41378],[73.90373,18.41322],[73.90436,18.41329],[73.90443,18.41318],[73.90412,18.41278],[73.90376,18.41122],[73.90354,18.41124],[73.90314,18.41055],[73.90288,18.40955],[73.90258,18.40946],[73.90062,18.40981],[73.89993,18.40997],[73.89899,18.40988],[73.89818,18.40986],[73.89718,18.40995],[73.89491,18.41017],[73.89444,18.41012],[73.89312,18.40992],[73.89261,18.4098],[73.89172,18.40938],[73.89085,18.41033],[73.88941,18.41182],[73.8891,18.4127],[73.88832,18.41523],[73.888,18.41559],[73.88545,18.41857],[73.88323,18.42123],[73.88277,18.42208],[73.88261,18.42258],[73.88235,18.42339],[73.88125,18.42525],[73.88099,18.42612],[73.88073,18.42702],[73.87909,18.42851],[73.87954,18.42881],[73.87977,18.42945],[73.88011,18.43035],[73.88095,18.43193],[73.88134,18.43279],[73.88143,18.43319],[73.88145,18.43349],[73.88156,18.43381],[73.88156,18.43441],[73.88159,18.43468],[73.88176,18.43524],[73.88176,18.4355],[73.88185,18.43703],[73.88181,18.43721],[73.8809,18.43789],[73.88058,18.43819],[73.88019,18.43821],[73.87828,18.43839],[73.87809,18.4393],[73.87802,18.43963],[73.87714,18.44218],[73.87726,18.44301],[73.87723,18.44321],[73.87689,18.4441],[73.87756,18.44434],[73.87765,18.44438],[73.87756,18.44462],[73.8769,18.44596],[73.8767,18.44659],[73.87613,18.44656],[73.87578,18.44773],[73.87551,18.44873],[73.87533,18.45],[73.87522,18.44999],[73.87438,18.44983],[73.87425,18.45119],[73.87388,18.45445],[73.87378,18.45447],[73.87372,18.45588],[73.87358,18.45652],[73.87486,18.45659],[73.87511,18.45675],[73.87527,18.45676],[73.87553,18.45674],[73.87549,18.45795],[73.87602,18.45799],[73.87808,18.45814],[73.87784,18.45992],[73.87779,18.46097],[73.87781,18.46127],[73.87783,18.46162],[73.87778,18.46231],[73.87763,18.46426],[73.87752,18.46469],[73.87831,18.46471],[73.8789,18.46469],[73.87895,18.46466],[73.87896,18.46461],[73.87982,18.46457],[73.8798,18.46432],[73.88049,18.4644],[73.88129,18.46449],[73.88216,18.46457],[73.88266,18.46462],[73.88299,18.46464],[73.88335,18.46468],[73.88369,18.46474],[73.88376,18.46474],[73.88415,18.46453],[73.88482,18.4645],[73.88525,18.46452],[73.88555,18.46447],[73.88584,18.46452],[73.88669,18.46465],[73.88762,18.46476],[73.88797,18.46481],[73.88834,18.46481],[73.88868,18.4648],[73.88895,18.46477],[73.88927,18.46471],[73.88952,18.46469],[73.88958,18.46468]]]]}}]}